IRIDIUM 155             
1 43573U 18061E   24183.91400734  .00000204  00000+0  65688-4 0  9996
2 43573  86.3974 355.6009 0002320  94.6353 265.5108 14.34219384310837
IRIDIUM 154             
1 43574U 18061F   24184.17405371  .00000145  00000+0  44627-4 0  9992
2 43574  86.3977 355.5905 0001974  88.4418 271.7004 14.34218808310926
IRIDIUM 163             
1 43575U 18061G   24184.50387135 -.00000070  00000+0 -32222-4 0  9994
2 43575  86.3974 355.3906 0002037  91.5973 268.5456 14.34216778310946
IRIDIUM 156             
1 43576U 18061H   24184.19942735  .00000042  00000+0  80934-5 0  9994
2 43576  86.3976 355.5242 0002358  89.1532 270.9934 14.34215777310883
IRIDIUM 164             
1 43577U 18061J   24184.18039773  .00000163  00000+0  51295-4 0  9994
2 43577  86.3977 355.5612 0002152  82.2833 277.8607 14.34218364310930
IRIDIUM 159             
1 43578U 18061K   24183.93937870  .00000559  00000+0  19251-3 0  9996
2 43578  86.3974 355.6138 0001943  86.8582 273.2836 14.34217342310861
IRIDIUM 180             
1 43922U 19002A   24184.35748815 -.00000053  00000+0 -25818-4 0  9999
2 43922  86.3965 292.3186 0001968  96.8822 263.2598 14.34216989286579
IRIDIUM 176             
1 43923U 19002B   24183.93478894  .00001982  00000+0  31021-3 0  9992
2 43923  86.6092 292.5157 0002243  90.9767 269.1707 14.72269945294011
IRIDIUM 168             
1 43924U 19002C   24184.56045166  .00000044  00000+0  86620-5 0  9990
2 43924  86.3969 292.2909 0002241  93.1032 267.0420 14.34216354286544
IRIDIUM 173             
1 43925U 19002D   24183.85007995  .00000089  00000+0  24636-4 0  9997
2 43925  86.3966 292.5061 0002135  93.9079 266.2361 14.34216226286425
IRIDIUM 169             
1 43926U 19002E   24183.94083314  .00000679  00000+0  21547-3 0  9999
2 43926  86.4234 324.0954 0002957 138.4582 221.6842 14.38621164287394
IRIDIUM 172             
1 43927U 19002F   24183.84373848  .00000052  00000+0  11537-4 0  9997
2 43927  86.3965 292.5143 0002161  92.2844 267.8600 14.34216518286436
IRIDIUM 175             
1 43928U 19002G   24183.92914328  .00001908  00000+0  29857-3 0  9995
2 43928  86.1503 264.8247 0002242 103.4944 256.6523 14.72251016294002
IRIDIUM 171             
1 43929U 19002H   24183.82471054 -.00000049  00000+0 -24581-4 0  9996
2 43929  86.3975 292.7496 0002232  90.1894 269.9558 14.34217141286420
IRIDIUM 170             
1 43930U 19002J   24184.55268763  .00001887  00000+0  29525-3 0  9991
2 43930  86.6093 292.2623 0002366  94.8321 265.3166 14.72263235294114
IRIDIUM 167             
1 43931U 19002K   24183.81836479  .00000117  00000+0  34719-4 0  9992
2 43931  86.3966 292.5410 0002301  95.3166 264.8292 14.34216804286427
IRIDIUM 181             
1 56726U 23068S   24183.94083721  .00000697  00000+0  20022-3 0  9997
2 56726  86.8643 346.9395 0002471  93.0977 267.0508 14.43578004 59267
IRIDIUM 177             
1 56727U 23068T   24183.82716389  .00002647  00000+0  34485-3 0  9993
2 56727  86.1976 308.4082 0002726  85.8100 274.3432 14.80228256 60548
IRIDIUM 174             
1 56728U 23068U   24184.43014604  .00002460  00000+0  32021-3 0  9990
2 56728  86.1984 308.2268 0002539  95.6486 264.5024 14.80234661 60635
IRIDIUM 178             
1 56729U 23068V   24183.88389601  .00002614  00000+0  34041-3 0  9996
2 56729  86.5786 326.6479 0002165  98.2122 261.9345 14.80250325 60552
IRIDIUM 179             
1 56730U 23068W   24183.87847639  .00002584  00000+0  33656-3 0  9994
2 56730  86.6795 330.9696 0002365  97.7655 262.3835 14.80247393 60551
